ONEWEB-0431             
1 51630U 22012J   24099.51830622  .00005170  00000+0  14784-1 0  9990
2 51630  87.8988 195.1779 0001971 128.4164 231.7141 13.10289177104618
ONEWEB-0434             
1 51631U 22012K   24099.49521833  .00003611  00000+0  10307-1 0  9994
2 51631  87.8997 195.1928 0001730 104.7537 255.3782 13.10346788104591
ONEWEB-0435             
1 51632U 22012L   24099.50349361  .00005311  00000+0  15177-1 0  9990
2 51632  87.8995 195.1818 0001472 113.0429 247.0854 13.10337633104580
ONEWEB-0436             
1 51633U 22012M   24099.45333014  .00000047  00000+0  87131-4 0  9996
2 51633  87.9230 164.9900 0001779 100.8089 259.3243 13.17649103108369
ONEWEB-0438             
1 51634U 22012N   24099.56326661  .00000821  00000+0  23155-2 0  9993
2 51634  87.9000 195.1705 0002006  97.9198 262.2157 13.10369446104629
ONEWEB-0439             
1 51635U 22012P   24099.56657829  .00001214  00000+0  34422-2 0  9993
2 51635  87.8997 195.1542 0001925 106.2070 253.9270 13.10366094104602
ONEWEB-0442             
1 51636U 22012Q   24099.44462089 -.00000197  00000+0 -53973-3 0  9997
2 51636  87.9230 165.0239 0002923  96.4211 263.7253 13.17648831108354
ONEWEB-0443             
1 51637U 22012R   24099.46439572  .00000075  00000+0  15954-3 0  9991
2 51637  87.9232 165.0266 0001596  91.9483 268.1831 13.17649727108405
